[{"OBJECT_NAME":"IRIDIUM 173","OBJECT_ID":"2019-002D","EPOCH":"2026-03-09T23:25:14.922624","MEAN_MOTION":14.34217176,"ECCENTRICITY":0.00020878,"INCLINATION":86.3979,"RA_OF_ASC_NODE":35.0129,"ARG_OF_PERICENTER":83.8645,"MEAN_ANOMALY":276.2788,"EPHEMERIS_TYPE":0,"CLASSIFICATION_TYPE":"U","NORAD_CAT_ID":43925,"ELEMENT_SET_NO":999,"REV_AT_EPOCH":37473,"BSTAR":2.1469625e-5,"MEAN_MOTION_DOT":8.0e-7,"MEAN_MOTION_DDOT":0},{"OBJECT_NAME":"COSMOS 1275 DEB","OBJECT_ID":"1981-053BX","EPOCH":"2026-03-09T14:06:59.697216","MEAN_MOTION":14.35777446,"ECCENTRICITY":0.001652,"INCLINATION":82.9342,"RA_OF_ASC_NODE":94.389,"ARG_OF_PERICENTER":46.246,"MEAN_ANOMALY":76.1218,"EPHEMERIS_TYPE":0,"CLASSIFICATION_TYPE":"U","NORAD_CAT_ID":12730,"ELEMENT_SET_NO":999,"REV_AT_EPOCH":28281,"BSTAR":0.0016153,"MEAN_MOTION_DOT":4.695e-5,"MEAN_MOTION_DDOT":0}]
